<way id="42679469" visible="true" version="5" changeset="109658392" timestamp="2021-08-14T07:37:45Z" user="geerhoeb" uid="13442193">
  <nd ref="533710840"/>
  <nd ref="533710849"/>
  <nd ref="1187631038"/>
  <nd ref="533710846"/>
  <nd ref="533710848"/>
  <tag k="highway" v="residential"/>
  <tag k="name" v="Volksverheffingsstraat"/>
  <tag k="oneway" v="yes"/>
  <tag k="oneway:bicycle" v="no"/>
 </way>
  <way id="931719804" visible="true" version="2" changeset="118978171" timestamp="2022-03-27T12:03:23Z" user="Ivan Lievens" uid="63737">
   <nd ref="8637748047"/>
   <nd ref="8637747702"/>
   <nd ref="8637748198"/>
   <nd ref="8637747966"/>
   <nd ref="8637747652"/>
   <nd ref="8637748144"/>
   <nd ref="8637747835"/>
   <nd ref="8637748087"/>
   <nd ref="8637747776"/>
   <nd ref="8637748266"/>
   <nd ref="8637747959"/>
   <nd ref="8637747727"/>
   <nd ref="8637748219"/>
   <nd ref="8637747907"/>
   <nd ref="8637747602"/>
   <nd ref="8637748225"/>
   <nd ref="8637747735"/>
   <nd ref="8637748047"/>
   <tag k="addr:housenumber" v="1C;1E"/>
   <tag k="addr:street" v="Volksverheffingsstraat"/>
   <tag k="building" v="house"/>
   <tag k="source:geometry:date" v="2017-03-28"/>
   <tag k="source:geometry:ref" v="Gbg/3772815"/>
  </way>
   <way id="970393992" visible="true" version="3" changeset="126236000" timestamp="2022-09-15T18:40:14Z" user="Yannis Baeyens" uid="16892784">
    <nd ref="533710840"/>
    <nd ref="533710841"/>
    <nd ref="8933503277"/>
    <nd ref="533710828"/>
    <tag k="highway" v="residential"/>
    <tag k="maxspeed" v="30"/>
    <tag k="name" v="Volksverheffingsstraat"/>
    <tag k="oneway" v="yes"/>
    <tag k="oneway:bicycle" v="no"/>
   </way>